NORAD_CAT_ID,OBJECT_NAME,OBJECT_TYPE,EPOCH,MEAN_MOTION,ECCENTRICITY,INCLINATION,RA_OF_ASC_NODE,ARG_OF_PERICENTER,MEAN_ANOMALY,BSTAR,MEAN_MOTION_DOT,MEAN_MOTION_DDOT,TLE_LINE0,TLE_LINE1,TLE_LINE2,SEMIMAJOR_AXIS,PERIOD,APOGEE,PERIGEE,DECAYED
55936.0,STARLINK-5882,PAYLOAD,2023-10-06 14:00:01,15.01240081,0.0003156,70.0001,335.9743,273.7291,190.0207,-0.076555,-0.00910998,0.0,0 STARLINK-5882,1 55936U 23037Y   23279.58335648 -.00910998  00000-0 -76555-1 0  9995,2 55936  70.0001 335.9743 0003156 273.7291 190.0207 15.01240081 32239,6941.208,95.921,565.264,560.883,0.0
55936.0,STARLINK-5882,PAYLOAD,2023-10-06 22:00:01,15.00434212,0.0003137,70.0,335.1315,267.5286,196.8317,-0.040641,-0.00483501,0.0,0 STARLINK-5882,1 55936U 23037Y   23279.91668981 -.00483501  00000-0 -40641-1 0  9993,2 55936  70.0000 335.1315 0003137 267.5286 196.8317 15.00434212  6348,6943.693,95.972,567.737,563.38,0.0
55936.0,STARLINK-5882,PAYLOAD,2023-10-07 14:00:01,14.99281193,0.0002967,69.9998,333.4408,281.1469,181.9462,0.0032579,0.00039977,0.0,0 STARLINK-5882,1 55936U 23037Y   23280.58334491  .00039977  00000-0  32579-2 0  9998,2 55936  69.9998 333.4408 0002967 281.1469 181.9462 14.99281193 32384,6947.253,96.046,571.179,567.057,0.0
55936.0,STARLINK-5882,PAYLOAD,2023-10-07 22:00:00,14.99270362,0.0002995,70.0,332.5988,273.3718,188.3916,0.0012513,0.00015238,0.0,0 STARLINK-5882,1 55936U 23037Y   23280.91667824  .00015238  00000-0  12513-2 0  9994,2 55936  70.0000 332.5988 0002995 273.3718 188.3916 14.99270362  5847,6947.286,96.047,571.232,567.071,0.0
55936.0,STARLINK-5882,PAYLOAD,2023-10-08 06:00:00,14.99323166,0.0002994,70.0003,331.7575,274.0982,186.2698,-0.0024677,-0.00030177,0.0,0 STARLINK-5882,1 55936U 23037Y   23281.25001157 -.00030177  00000-0 -24677-2 0  9998,2 55936  70.0003 331.7575 0002994 274.0982 186.2698 14.99323166 32488,6947.123,96.043,571.068,566.908,0.0
55936.0,STARLINK-5882,PAYLOAD,2023-10-08 14:00:01,14.99287452,0.0003032,70.0,330.9157,279.2261,179.8123,0.0015263,0.00018625,0.0,0 STARLINK-5882,1 55936U 23037Y   23281.58334491  .00018625  00000-0  15263-2 0  9997,2 55936  70.0000 330.9157 0003032 279.2261 179.8123 14.99287452  5942,6947.234,96.046,571.205,566.992,0.0
55936.0,STARLINK-5882,PAYLOAD,2023-10-08 22:00:00,14.99277066,0.0002976,70.0001,330.074,273.7253,183.967,0.0039272,0.00048261,0.0,0 STARLINK-5882,1 55936U 23037Y   23281.91667824  .00048261  00000-0  39272-2 0  9998,2 55936  70.0001 330.0740 0002976 273.7253 183.9670 14.99277066 32581,6947.266,96.046,571.198,567.063,0.0
55936.0,STARLINK-5882,PAYLOAD,2023-10-09 14:00:01,14.99296453,0.0002989,69.9999,328.3906,277.4396,177.5605,-0.00051628,-6.405e-05,0.0,0 STARLINK-5882,1 55936U 23037Y   23282.58334491 -.00006405  00000-0 -51628-3 0  9999,2 55936  69.9999 328.3906 0002989 277.4396 177.5605 14.99296453 32680,6947.206,96.045,571.147,566.994,0.0
55936.0,STARLINK-5882,PAYLOAD,2023-10-09 22:00:00,14.99262302,0.0002916,69.9999,327.5489,270.9402,182.7064,0.0041365,0.00050837,0.0,0 STARLINK-5882,1 55936U 23037Y   23282.91667824  .00050837  00000-0  41365-2 0  9997,2 55936  69.9999 327.5489 0002916 270.9402 182.7064 14.99262302  5844,6947.311,96.047,571.202,567.15,0.0
55936.0,STARLINK-5882,PAYLOAD,2023-10-10 06:00:02,14.99335408,0.0002927,70.0001,326.7072,270.4104,181.9283,-0.0029171,-0.00035639,0.0,0 STARLINK-5882,1 55936U 23037Y   23283.25002315 -.00035639  00000-0 -29171-2 0  9999,2 55936  70.0001 326.7072 0002927 270.4104 181.9283 14.99335408 32781,6947.085,96.043,570.984,566.917,0.0
55936.0,STARLINK-5882,PAYLOAD,2023-10-10 14:00:01,14.9929649,0.0002902,69.9997,325.8653,274.5805,176.3717,-0.0010121,-0.00012454,0.0,0 STARLINK-5882,1 55936U 23037Y   23283.58334491 -.00012454  00000-0 -10121-2 0  9993,2 55936  69.9997 325.8653 0002902 274.5805 176.3717 14.99296490  5948,6947.206,96.045,571.087,567.055,0.0
55936.0,STARLINK-5882,PAYLOAD,2023-10-10 22:00:01,14.99254616,0.000286,69.9996,325.0235,266.847,182.815,0.0048909,0.00060194,0.0,0 STARLINK-5882,1 55936U 23037Y   23283.91668981  .00060194  00000-0  48909-2 0  9991,2 55936  69.9996 325.0235 0002860 266.8470 182.8150 14.99254616  5891,6947.335,96.048,571.187,567.213,0.0
55936.0,STARLINK-5882,PAYLOAD,2023-10-11 00:00:00,14.99254076,0.0002881,69.9995,324.8132,265.8859,273.3675,0.0064621,0.00079784,0.0,0 STARLINK-5882,1 55936U 23037Y   23284.00001157  .00079784  00000-0  64621-2 0  9992,2 55936  69.9995 324.8132 0002881 265.8859 273.3675 14.99254076 32906,6947.337,96.048,571.203,567.2,0.0
55936.0,STARLINK-5882,PAYLOAD,2023-10-11 10:24:43,14.99292941,0.0002422,69.998,323.7169,261.3586,98.73,-7.2576e-05,-9.81e-06,0.0,0 STARLINK-5882,1 55936U 23037Y   23284.43383499 -.00000981  00000-0 -72576-4 0  9996,2 55936  69.9980 323.7169 0002422 261.3586  98.7300 14.99292941 32960,6947.217,96.045,570.764,567.399,0.0
55936.0,STARLINK-5882,PAYLOAD,2023-10-11 12:00:47,14.9928071,0.000247,69.998,323.5484,260.8485,99.2395,0.00014334,1.66e-05,0.0,0 STARLINK-5882,1 55936U 23037Y   23284.50055425  .00001660  00000-0  14334-3 0  9999,2 55936  69.9980 323.5484 0002470 260.8485  99.2395 14.99280710 32638,6947.254,96.046,570.835,567.403,0.0
55936.0,STARLINK-5882,PAYLOAD,2023-10-12 12:01:52,14.99300095,0.0002694,69.9976,321.0213,268.6796,91.4055,1.5657e-05,9.8e-07,0.0,0 STARLINK-5882,1 55936U 23037Y   23285.50129886  .00000098  00000-0  15657-4 0  9997,2 55936  69.9976 321.0213 0002694 268.6796  91.4055 14.99300095 32787,6947.195,96.045,570.931,567.188,0.0
55936.0,STARLINK-5882,PAYLOAD,2023-10-12 20:02:13,14.99302188,0.0002639,69.9982,320.1782,274.9232,85.1626,-1.1988e-05,-2.41e-06,0.0,0 STARLINK-5882,1 55936U 23037Y   23285.83488257 -.00000241  00000-0 -11988-4 0  9998,2 55936  69.9982 320.1782 0002639 274.9232  85.1626 14.99302188 33172,6947.188,96.045,570.886,567.22,0.0
55936.0,STARLINK-5882,PAYLOAD,2023-10-13 12:02:56,14.99302718,0.0002795,69.9976,318.4944,269.7895,90.2944,0.00011947,1.368e-05,0.0,0 STARLINK-5882,1 55936U 23037Y   23286.50204682  .00001368  00000-0  11947-3 0  9994,2 55936  69.9976 318.4944 0002795 269.7895  90.2944 14.99302718 32937,6947.186,96.045,570.993,567.11,0.0
55936.0,STARLINK-5882,PAYLOAD,2023-10-14 04:03:40,14.99307341,0.0002604,69.9976,316.8095,272.5014,87.5848,-5.7523e-05,-7.98e-06,0.0,0 STARLINK-5882,1 55936U 23037Y   23287.16921657 -.00000798  00000-0 -57523-4 0  9994,2 55936  69.9976 316.8095 0002604 272.5014  87.5848 14.99307341 33378,6947.172,96.044,570.846,567.228,0.0
55936.0,STARLINK-5882,PAYLOAD,2023-10-14 12:04:01,14.99306974,0.0002722,69.9984,315.966,268.2869,91.7978,8.2158e-05,9.12e-06,0.0,0 STARLINK-5882,1 55936U 23037Y   23287.50279540  .00000912  00000-0  82158-4 0  9997,2 55936  69.9984 315.9660 0002722 268.2869  91.7978 14.99306974 33086,6947.173,96.044,570.929,567.147,0.0
55936.0,STARLINK-5882,PAYLOAD,2023-10-15 04:04:50,14.99244494,0.0003015,69.9982,314.2817,259.0423,101.0397,-0.00057395,-7.099e-05,0.0,0 STARLINK-5882,1 55936U 23037Y   23288.17003464 -.00007099  00000-0 -57395-3 0  9990,2 55936  69.9982 314.2817 0003015 259.0423 101.0397 14.99244494 33527,6947.366,96.048,571.326,567.137,0.0
55936.0,STARLINK-5882,PAYLOAD,2023-10-15 12:05:51,14.98801979,0.0003193,69.9985,313.4423,223.5146,136.5762,-0.00516,-0.00061874,0.0,0 STARLINK-5882,1 55936U 23037Y   23288.50406699 -.00061874  00000-0 -51600-2 0  9997,2 55936  69.9985 313.4423 0003193 223.5146 136.5762 14.98801979 33579,6948.734,96.077,572.817,568.38,0.0
55936.0,STARLINK-5882,PAYLOAD,2023-10-15 18:30:19,14.98752263,0.0002532,69.9987,312.7679,276.2627,83.8244,-0.0053802,-0.00064401,0.0,0 STARLINK-5882,1 55936U 23037Y   23288.77105769 -.00064401  00000-0 -53802-2 0  9995,2 55936  69.9987 312.7679 0002532 276.2627  83.8244 14.98752263 33616,6948.887,96.08,572.512,568.993,0.0
55936.0,STARLINK-5882,PAYLOAD,2023-10-16 12:07:33,14.98670838,0.0002679,69.999,310.9163,270.1016,89.9836,-0.0048575,-0.00058083,0.0,0 STARLINK-5882,1 55936U 23037Y   23289.50524990 -.00058083  00000-0 -48575-2 0  9998,2 55936  69.9990 310.9163 0002679 270.1016  89.9836 14.98670838 33728,6949.139,96.085,572.866,569.142,0.0
55936.0,STARLINK-5882,PAYLOAD,2023-10-17 10:33:16,14.98478478,0.000212,69.9996,308.5593,253.8743,106.2183,-0.002422,-0.00028982,0.0,0 STARLINK-5882,1 55936U 23037Y   23290.43977950 -.00028982  00000-0 -24220-2 0  9996,2 55936  69.9996 308.5593 0002120 253.8743 106.2183 14.98478478 33869,6949.734,96.097,573.072,570.125,0.0
55936.0,STARLINK-5882,PAYLOAD,2023-10-18 06:00:00,14.98345777,0.0002996,70.0002,306.5162,269.5081,139.6041,-0.0027817,-0.00033141,0.0,0 STARLINK-5882,1 55936U 23037Y   23291.25001157 -.00033141  00000-0 -27817-2 0  9992,2 55936  70.0002 306.5162 0002996 269.5081 139.6041 14.98345777  5924,6950.144,96.106,574.091,569.927,0.0
55936.0,STARLINK-5882,PAYLOAD,2023-10-18 14:00:01,14.98337073,0.0003004,69.9999,305.6755,273.797,132.8008,-0.0015087,-0.00018052,0.0,0 STARLINK-5882,1 55936U 23037Y   23291.58334491 -.00018052  00000-0 -15087-2 0  9998,2 55936  69.9999 305.6755 0003004 273.7970 132.8008 14.98337073 34031,6950.171,96.107,574.124,569.948,0.0
55936.0,STARLINK-5882,PAYLOAD,2023-10-18 22:00:00,14.98292857,0.0003013,70.0001,304.835,266.5931,137.4992,0.0066021,0.00079506,0.0,0 STARLINK-5882,1 55936U 23037Y   23291.91667824  .00079506  00000-0  66021-2 0  9997,2 55936  70.0001 304.8350 0003013 266.5931 137.4992 14.98292857  5926,6950.308,96.109,574.267,570.079,0.0
55936.0,STARLINK-5882,PAYLOAD,2023-10-19 10:37:20,14.98328991,0.0002813,69.9983,303.5099,270.3502,89.7334,0.00014599,1.649e-05,0.0,0 STARLINK-5882,1 55936U 23037Y   23292.44259365  .00001649  00000-0  14599-3 0  9990,2 55936  69.9983 303.5099 0002813 270.3502  89.7334 14.98328991 34168,6950.196,96.107,574.016,570.106,0.0
55936.0,STARLINK-5882,PAYLOAD,2023-10-19 18:38:00,14.9836082,0.0002796,69.9983,302.6682,270.9211,89.1628,-0.00053934,-6.527e-05,0.0,0 STARLINK-5882,1 55936U 23037Y   23292.77638991 -.00006527  00000-0 -53934-3 0  9990,2 55936  69.9983 302.6682 0002796 270.9211  89.1628 14.98360820 34212,6950.098,96.105,573.906,570.019,0.0
